{
    "links": {
        "self": "http://www.neowsapp.com/rest/v1/neo/3154350?api_key=iIulBulltgU6a56xZRHN4H3l9WmuAYTsLGpBGhQ2"
    },
    "id": "3154350",
    "neo_reference_id": "3154350",
    "name": "(2003 JY2)",
    "designation": "2003 JY2",
    "nasa_jpl_url": "http://ssd.jpl.nasa.gov/sbdb.cgi?sstr=3154350",
    "absolute_magnitude_h": 24.6,
    "estimated_diameter": {
        "kilometers": {
            "estimated_diameter_min": 0.0319561887,
            "estimated_diameter_max": 0.0714562102
        },
        "meters": {
            "estimated_diameter_min": 31.9561886721,
            "estimated_diameter_max": 71.4562101727
        },
        "miles": {
            "estimated_diameter_min": 0.0198566489,
            "estimated_diameter_max": 0.0444008168
        },
        "feet": {
            "estimated_diameter_min": 104.8431420431,
            "estimated_diameter_max": 234.436392583
        }
    },
    "is_potentially_hazardous_asteroid": false,
    "close_approach_data": [
        {
            "close_approach_date": "1973-12-05",
            "close_approach_date_full": "1973-Dec-05 06:53",
            "epoch_date_close_approach": 123922380000,
            "relative_velocity": {
                "kilometers_per_second": "22.4464212336",
                "kilometers_per_hour": "80807.1164407843",
                "miles_per_hour": "50210.3996573307"
            },
            "miss_distance": {
                "astronomical": "0.1062313231",
                "lunar": "41.3239846859",
                "kilometers": "15891979.663041797",
                "miles": "9874818.2612069186"
            },
            "orbiting_body": "Venus"
        },
        {
            "close_approach_date": "2003-04-28",
            "close_approach_date_full": "2003-Apr-28 20:45",
            "epoch_date_close_approach": 1051562700000,
            "relative_velocity": {
                "kilometers_per_second": "18.4206773639",
                "kilometers_per_hour": "66314.4385098719",
                "miles_per_hour": "41205.2131952034"
            },
            "miss_distance": {
                "astronomical": "0.0149902882",
                "lunar": "5.8312221098",
                "kilometers": "2242515.185406134",
                "miles": "1393434.3218032892"
            },
            "orbiting_body": "Earth"
        },
        {
            "close_approach_date": "2004-10-03",
            "close_approach_date_full": "2004-Oct-03 18:36",
            "epoch_date_close_approach": 1096828560000,
            "relative_velocity": {
                "kilometers_per_second": "24.4029749208",
                "kilometers_per_hour": "87850.709714966",
                "miles_per_hour": "54587.014600391"
            },
            "miss_distance": {
                "astronomical": "0.2065703373",
                "lunar": "80.3558612097",
                "kilometers": "30902482.465261551",
                "miles": "19201912.1994133638"
            },
            "orbiting_body": "Earth"
        }
    ],
    "orbital_data": {
        "orbit_id": "9",
        "orbit_determination_date": "2017-04-06 09:14:07",
        "first_observation_date": "2003-05-02",
        "last_observation_date": "2003-05-06",
        "data_arc_in_days": 4,
        "observations_used": 37,
        "orbit_uncertainty": "8",
        "minimum_orbit_intersection": ".0149543",
        "jupiter_tisserand_invariant": "4.463",
        "epoch_osculation": "2452763.5",
        "eccentricity": ".6042648700318417",
        "semi_major_axis": "1.433383797035718",
        "inclination": "4.952500446916107",
        "ascending_node_longitude": "47.84587046070474",
        "orbital_period": "626.8190158507231",
        "perihelion_distance": ".5672403232141823",
        "perihelion_argument": "70.85126169499219",
        "aphelion_distance": "2.299527270857255",
        "perihelion_time": "2452705.325865166491",
        "mean_anomaly": "33.41106126405511",
        "mean_motion": ".5743284598847174",
        "equinox": "J2000",
        "orbit_class": {
            "orbit_class_type": "APO",
            "orbit_class_description": "Near-Earth asteroid orbits which cross the Earth’s orbit similar to that of 1862 Apollo",
            "orbit_class_range": "a (semi-major axis) > 1.0 AU; q (perihelion) < 1.017 AU"
        }
    },
    "is_sentry_object": false
}